[{"OBJECT_NAME":"STARLINK-31975","OBJECT_ID":"2024-100B","EPOCH":"2026-03-09T12:57:49.659840","MEAN_MOTION":15.2759966,"ECCENTRICITY":8.598e-5,"INCLINATION":43.0001,"RA_OF_ASC_NODE":126.2718,"ARG_OF_PERICENTER":177.9327,"MEAN_ANOMALY":182.1528,"EPHEMERIS_TYPE":0,"CLASSIFICATION_TYPE":"U","NORAD_CAT_ID":59886,"ELEMENT_SET_NO":999,"REV_AT_EPOCH":10113,"BSTAR":-0.00030686127,"MEAN_MOTION_DOT":-8.701e-5,"MEAN_MOTION_DDOT":0},{"OBJECT_NAME":"BANDWAGON-4 OBJECT M","OBJECT_ID":"2025-248M","EPOCH":"2026-03-09T00:50:26.830464","MEAN_MOTION":15.24295413,"ECCENTRICITY":0.00129441,"INCLINATION":45.4108,"RA_OF_ASC_NODE":294.9904,"ARG_OF_PERICENTER":207.5285,"MEAN_ANOMALY":152.4918,"EPHEMERIS_TYPE":0,"CLASSIFICATION_TYPE":"U","NORAD_CAT_ID":66304,"ELEMENT_SET_NO":999,"REV_AT_EPOCH":1803,"BSTAR":0.00095703617,"MEAN_MOTION_DOT":0.00023645,"MEAN_MOTION_DDOT":0}]
